SMOS                    
1 36036U 09059A   22042.79884805  .00000259  00000+0  96435-4 0  9996
2 36036  98.4415 232.1278 0001143  90.8507 269.2812 14.39772158645185
YAOGAN 7                
1 36110U 09069A   22043.18256534  .00000206  00000+0  38489-4 0  9993
2 36110  98.2145 261.1568 0026640  87.6470 272.7786 14.75029767655666
TANDEM-X                
1 36605U 10030A   22043.28330478 -.00000194  00000+0 -60258-5 0  9991
2 36605  97.4469  52.6572 0001960  82.6897 288.4439 15.19146777645869
CARTOSAT-2B             
1 36795U 10035A   22043.13228839  .00000370  00000+0  57585-4 0  9999
2 36795  97.9790 104.7459 0012472 291.9115  68.0785 14.78648653625545
YAOGAN 10               
1 36834U 10038A   22043.15945837  .00000347  00000+0  51496-4 0  9991
2 36834  97.9799  54.5529 0001370  88.6832 271.4535 14.81140930622235
COSMO-SKYMED 4          
1 37216U 10060A   22043.14864337 -.00000787  00000+0 -92285-4 0  9996
2 37216  97.8835 228.6166 0001418  90.5818 269.5487 14.82153956609692
RESOURCESAT-2           
1 37387U 11015A   22043.06339068  .00000059  00000+0  46808-4 0  9995
2 37387  98.6768 117.7764 0005401  77.3424 282.8343 14.21644942561340
HAIYANG-2A              
1 37781U 11043A   22043.03902467 -.00000001  00000+0  42463-4 0  9991
2 37781  99.3182  51.0676 0001137 130.8039 229.3211 13.78730183528355
RASAT                   
1 37791U 11044D   22043.17424268  .00000313  00000+0  67407-4 0  9996
2 37791  98.0972 138.1369 0022100 161.5916 198.6093 14.64910010560776
MEGHA-TROPIQUES         
1 37838U 11058A   22043.07359112  .00000423  00000+0  89625-4 0  9995
2 37838  19.9790 323.7801 0010014 345.5347  14.4770 14.09671465533396
SRMSAT                  
1 37841U 11058D   22042.85748187  .00000378  00000+0  62454-4 0  9998
2 37841  19.9721 294.0856 0011851  44.6536  27.5926 14.10725244533486
YAOGAN 13               
1 37941U 11072A   22043.11668981  .00004289  00000+0  20345-3 0  9995
2 37941  97.6179 351.8108 0003579  98.0283  76.0327 15.19825596565759
PLEIADES 1A             
1 38012U 11076F   22043.11378210  .00000149  00000+0  41771-4 0  9990
2 38012  98.1764 119.9255 0001631  78.8847 281.2543 14.58574151540809
ZIYUAN 1-02C (ZY 1-02C) 
1 38038U 11079A   22043.16254134  .00000169  00000+0  74347-4 0  9991
2 38038  98.6067 108.2558 0005899 278.5520  81.5008 14.35324869531511
ZIYUAN 3-1 (ZY 3-1)     
1 38046U 12001A   22043.26606769  .00005997  00000+0  27124-3 0  9996
2 38046  97.3563 117.2081 0001397 131.1820 315.3563 15.21280922560573
ARIRANG-3 (KOMPSAT-3)   
1 38338U 12025B   22043.11450637  .00000319  00000+0  73287-4 0  9996
2 38338  98.1688 344.6075 0012002  50.3371 309.8887 14.61749855519660
KANOPUS-V 1             
1 38707U 12039A   22043.15558250  .00004112  00000+0  19072-3 0  9991
2 38707  97.4689 326.2352 0001982  83.8034  53.6660 15.20611665530343
EXACTVIEW-1 (ADS-1B)    
1 38709U 12039C   22043.14321101  .00000038  00000+0  36878-4 0  9992
2 38709  99.0271 106.4264 0011806  61.7461 298.4907 14.24077489496904
SPOT 6                  
1 38755U 12047A   22043.12963256  .00000148  00000+0  41623-4 0  9999
2 38755  98.1725 112.3404 0001522  75.5717 284.5662 14.58573515501888
PLEIADES 1B             
1 39019U 12068A   22043.21662849  .00000154  00000+0  42826-4 0  9993
2 39019  98.1713 119.9620 0001447  75.5612 284.5757 14.58568877489674
GOKTURK 2               
1 39030U 12073A   22043.09908905  .00000218  00000+0  41449-4 0  9995
2 39030  97.8735 286.0945 0002011  50.3015 309.8387 14.72952423490907
LANDSAT 8               
1 39084U 13008A   22043.17128154  .00000235  00000+0  62105-4 0  9993
2 39084  98.1976 115.3129 0001323 101.3370 258.7977 14.57118962478752
SARAL                   
1 39086U 13009A   22043.11309177  .00000068  00000+0  41381-4 0  9993
2 39086  98.5453 230.5995 0000085  78.5381 281.5812 14.32053480468544
GAOFEN 1                
1 39150U 13018A   22043.20024741  .00000344  00000+0  56244-4 0  9997
2 39150  97.8044 113.4359 0018348 327.9913  32.0186 14.76592659474252
VNREDSAT 1              
1 39160U 13021B   22043.20701554  .00000344  00000+0  76211-4 0  9992
2 39160  98.0904 121.1522 0001353  78.5949 281.5412 14.62992484468302
ARIRANG-5 (KOMPSAT-5)   
1 39227U 13042A   22043.16389698  .00000935  00000+0  71113-4 0  9997
2 39227  97.6265 230.4134 0001645  79.1996  55.4919 15.04513113465444
SKYSAT-A                
1 39418U 13066C   22042.79958026  .00001207  00000+0  10287-3 0  9997
2 39418  97.5658 118.2743 0020400 322.2210  37.7581 14.99431590449824
DUBAISAT-2              
1 39419U 13066D   22043.05950194  .00001425  00000+0  13653-3 0  9998
2 39419  97.4622  81.2992 0013253 346.9624  13.1290 14.94586698448469
GPM-CORE                
1 39574U 14009C   22042.94335559  .00010382  00000+0  15156-3 0  9999
2 39574  65.0034 255.5840 0010785 284.7584  75.2367 15.56068651452077
SENTINEL-1A             
1 39634U 14016A   22043.17331778 -.00000054  00000+0 -17880-5 0  9994
2 39634  98.1817  52.5078 0001329  83.2792 276.8565 14.59198208418755
KAZEOSAT 1              
1 39731U 14024A   22043.17067778 -.00000977  00000+0 -28459-3 0  9993
2 39731  98.4775 119.6477 0001590  89.2525 270.8753 14.41974550410036
ALOS-2                  
1 39766U 14029A   22043.21648227  .00000060  00000+0  14961-4 0  9990
2 39766  97.9201 142.1472 0001594  95.2123 264.9271 14.79472646417118
KAZEOSAT 2              
1 40010U 14033A   22043.13747649  .00000307  00000+0  45011-4 0  9992
2 40010  97.7406 292.6213 0016518 124.7300 235.5481 14.82101687413883
HODOYOSHI-4             
1 40011U 14033B   22043.10091996  .00000581  00000+0  80175-4 0  9991
2 40011  97.6970 281.3826 0027755 125.3645 235.0174 14.81466522413535
DEIMOS-2                
1 40013U 14033D   22043.05291944  .00000941  00000+0  11640-3 0  9992
2 40013  97.7731 303.3101 0001862 113.2791 246.8616 14.85048254414582
HODOYOSHI-3             
1 40015U 14033F   22042.61891670  .00000426  00000+0  64076-4 0  9997
2 40015  97.6572 262.7728 0037514 151.0651 209.2651 14.78772398412717
SPOT 7                  
1 40053U 14034A   22043.16437899  .00000149  00000+0  41944-4 0  9991
2 40053  98.1887 112.5786 0001219  75.9470 284.1879 14.58553191405820
SKYSAT-B                
1 40072U 14037D   22043.15929759  .00000541  00000+0  76348-4 0  9997
2 40072  98.4275 265.3305 0006536   8.8947 351.2379 14.81548041410775
WORLDVIEW-3 (WV-3)      
1 40115U 14048A   22043.18937690  .00000549  00000+0  70363-4 0  9992
2 40115  97.8670 119.7913 0002864 113.1956 246.9578 14.85183012406551
GAOFEN 2                
1 40118U 14049A   22043.15040089  .00000551  00000+0  78273-4 0  9991
2 40118  97.7779 115.5493 0007773  14.3424 345.8021 14.80694865404554
YAOGAN 21               
1 40143U 14053A   22043.29723890  .00007321  00000+0  30919-3 0  9993
2 40143  97.3667 113.0425 0014773 307.2146 137.8789 15.23453372413492
YAOGAN 22               
1 40275U 14063A   22043.15417977 -.00000028  00000+0  47166-4 0  9992
2 40275 100.5497 164.1032 0006629 165.3240 194.8059 13.15434685351271
ASNARO                  
1 40298U 14070A   22043.17763924  .00005165  00000+0  24512-3 0  9998
2 40298  97.4766 126.5629 0001356  78.7734 336.2527 15.19694958403176
HODOYOSHI-1             
1 40299U 14070B   22043.17546668  .00003756  00000+0  15032-3 0  9994
2 40299  97.2593 115.0189 0011415 215.5290 196.7722 15.25619048403958
QSAT-EOS                
1 40301U 14070D   22043.20755569  .00011810  00000+0  38934-3 0  9990
2 40301  97.2262 113.7143 0021932 195.5739 230.5112 15.31364072404312
YAOGAN 23               
1 40305U 14071A   22043.15731481  .00003319  00000+0  15787-3 0  9992
2 40305  97.5922 353.5309 0001637 105.6876  89.8777 15.19893338401513
YAOGAN 24               
1 40310U 14072A   22043.18755723  .00000459  00000+0  73568-4 0  9991
2 40310  97.9584 165.2932 0017926 324.6770  35.3256 14.76233195389751
CBERS 4                 
1 40336U 14079A   22043.15463887  .00000044  00000+0  30365-4 0  9998
2 40336  98.4970 118.9858 0001940  93.6317 266.5097 14.35442849376430
RESURS P2               
1 40360U 14087A   22043.19458720  .00004235  00000+0  12589-3 0  9991
2 40360  97.2140 130.7025 0009536 169.7181 248.7850 15.35247483399032
YAOGAN 26               
1 40362U 14088A   22043.14295466  .00004515  00000+0  19057-3 0  9993
2 40362  97.1681  98.6128 0007704 142.3889 302.2991 15.23732898396941
SMAP                    
1 40376U 15003A   22042.89955153  .00000334  00000+0  73645-4 0  9992
2 40376  98.1257  51.5462 0001083 113.4153 246.7163 14.63372614375626
KOMPSAT-3A              
1 40536U 15014A   22043.14643065  .00002087  00000+0  12496-3 0  9990
2 40536  97.5613 347.0838 0002438 111.3312  16.3969 15.12120615380103
SENTINEL-2A             
1 40697U 15028A   22043.15854917 -.00000067  00000+0 -90497-5 0  9991
2 40697  98.5646 119.7020 0001328  86.5344 273.5905 14.30819143346930
GAOFEN 8                
1 40701U 15030A   22043.31895293  .00009817  00000+0  41552-3 0  9996
2 40701  97.5410 177.1039 0004513 178.7027 264.9058 15.23385583369334
CARBONITE 1 (CBNT-1)    
1 40718U 15032D   22043.18819129  .00000677  00000+0  10727-3 0  9990
2 40718  97.7553 272.8574 0018146  61.5667 298.7370 14.75144749354952
YAOGAN 27               
1 40878U 15040A   22043.09601110 -.00000020  00000+0  58662-4 0  9999
2 40878 100.1480  80.1277 0007679 273.1685  86.8553 13.15975459310546
GAOFEN 9-01             
1 40894U 15047A   22043.21252934  .00000389  00000+0  62979-4 0  9997
2 40894  97.8316 117.4649 0031540 255.3539 104.4177 14.76341916345703
LAPAN-A2                
1 40931U 15052B   22041.68629318  .00000960  00000+0  44507-4 0  9990
2 40931   5.9984 353.2235 0012976 179.9645 180.0601 14.76731204344577
YAOGAN 28               
1 41026U 15064A   22043.32612104  .00001389  00000+0  61551-4 0  9991
2 41026  97.5323 185.3948 0001716 113.8248 333.4149 15.23340744349189
